GLOBALSTAR M001         
1 25162U 98008A   24228.51797921 -.00000082  00000+0  11141-3 0  9991
2 25162  52.0026 142.8868 0001853 343.9077 186.8727 12.38190876205843
GLOBALSTAR M004         
1 25163U 98008B   24228.87680300 -.00000029  00000+0  41335-3 0  9992
2 25163  51.9984 265.5658 0002737 334.6953 196.9109 12.63368071223193
GLOBALSTAR M002         
1 25164U 98008C   24228.83295563 -.00000044  00000+0  62937-3 0  9990
2 25164  52.0011 285.8300 0001042 301.6414  58.4304 11.61502759148656
GLOBALSTAR M003         
1 25165U 98008D   24228.48919598  .00000063  00000+0  16225-2 0  9991
2 25165  51.9920 295.1776 0007958  42.3852 330.8072 12.12027634196150
GLOBALSTAR M014         
1 25306U 98023A   24228.27689586 -.00000043  00000+0  64997-3 0  9992
2 25306  51.9804 216.8762 0000736 159.4311 213.5887 11.65470219155503
GLOBALSTAR M006         
1 25307U 98023B   24228.80637448 -.00000029  00000+0  95579-3 0  9996
2 25307  51.9912 256.6003 0003763 271.8858 259.6775 11.58164652181556
GLOBALSTAR M015         
1 25308U 98023C   24228.67942219 -.00000063  00000+0  23342-3 0  9994
2 25308  51.9857 341.3840 0012193 250.7698 252.5356 11.48848896159337
GLOBALSTAR M008         
1 25309U 98023D   24228.74959819 -.00000086  00000+0  77255-4 0  9995
2 25309  51.9996   3.5819 0001910 240.6065 268.9734 12.36046454200387
